[{"OBJECT_NAME":"STARLINK-31054","OBJECT_ID":"2023-203B","EPOCH":"2026-03-09T01:28:33.805632","MEAN_MOTION":15.27568374,"ECCENTRICITY":0.00011168,"INCLINATION":43.0061,"RA_OF_ASC_NODE":70.7851,"ARG_OF_PERICENTER":265.1004,"MEAN_ANOMALY":94.972,"EPHEMERIS_TYPE":0,"CLASSIFICATION_TYPE":"U","NORAD_CAT_ID":58619,"ELEMENT_SET_NO":999,"REV_AT_EPOCH":12346,"BSTAR":1.1594819e-5,"MEAN_MOTION_DOT":5.7e-7,"MEAN_MOTION_DDOT":0},{"OBJECT_NAME":"CZ-6A DEB","OBJECT_ID":"2024-140NC","EPOCH":"2026-03-09T01:19:44.598720","MEAN_MOTION":14.85954551,"ECCENTRICITY":0.01874643,"INCLINATION":89.0262,"RA_OF_ASC_NODE":281.6645,"ARG_OF_PERICENTER":160.2054,"MEAN_ANOMALY":200.6578,"EPHEMERIS_TYPE":0,"CLASSIFICATION_TYPE":"U","NORAD_CAT_ID":61086,"ELEMENT_SET_NO":999,"REV_AT_EPOCH":8276,"BSTAR":0.00091551765,"MEAN_MOTION_DOT":0.00011041,"MEAN_MOTION_DDOT":0}]
